start=new Date('2022-05-26T00:00:00.000Z').valueOf();
sats=[{"TIME_SYSTEM":"UTC","NORAD_CAT_ID":"52649","CENTER_NAME":"EARTH","TLE_LINE1":"1 52649U 22052BD  22145.85699308  .00045737  00000-0  32740-3 0  9994","GP_ID":"204540677","REF_FRAME":"TEME","MEAN_ELEMENT_THEORY":"SGP4","CLASSIFICATION_TYPE":"U","MEAN_MOTION_DDOT":"0.0000000000000","APOAPSIS":"349.995","RCS_SIZE":null,"EPHEMERIS_TYPE":"0","REV_AT_EPOCH":"175","FILE":"3464394","EPOCH":"2022-05-25T20:34:04.202112","MEAN_MOTION_DOT":"0.00045737","ECCENTRICITY":"0.00006900","ARG_OF_PERICENTER":"155.9761","MEAN_MOTION":"15.73280446","LAUNCH_DATE":"2022-05-14","TLE_LINE2":"2 52649  53.2144  25.0281 0000690 155.9761 204.1292 15.73280446  1757","DECAY_DATE":null,"OBJECT_NAME":"STARLINK-3868","ELEMENT_SET_NO":"999","OBJECT_TYPE":"PAYLOAD","PERIAPSIS":"349.067","INCLINATION":"53.2144","RA_OF_ASC_NODE":"25.0281","PERIOD":"91.529","MEAN_ANOMALY":"204.1292","COUNTRY_CODE":"US","BSTAR":"0.00032740000000","SITE":"AFETR","OBJECT_ID":"2022-052BD","SEMIMAJOR_AXIS":"6727.666"},{"FILE":"3464394","EPOCH":"2022-05-25T20:33:47.834496","REF_FRAME":"TEME","MEAN_ELEMENT_THEORY":"SGP4","CLASSIFICATION_TYPE":"U","MEAN_MOTION_DDOT":"0.0000000000000","APOAPSIS":"350.053","RCS_SIZE":null,"EPHEMERIS_TYPE":"0","REV_AT_EPOCH":"175","CENTER_NAME":"EARTH","TLE_LINE1":"1 52650U 22052BE  22145.85680364  .00036879  00000-0  26505-3 0  9997","GP_ID":"204541335","TIME_SYSTEM":"UTC","NORAD_CAT_ID":"52650","SITE":"AFETR","OBJECT_ID":"2022-052BE","SEMIMAJOR_AXIS":"6727.649","PERIOD":"91.528","MEAN_ANOMALY":"259.6166","RA_OF_ASC_NODE":"25.0273","COUNTRY_CODE":"US","BSTAR":"0.00026505000000","DECAY_DATE":null,"OBJECT_NAME":"STARLINK-3891","ELEMENT_SET_NO":"999","OBJECT_TYPE":"PAYLOAD","PERIAPSIS":"348.974","INCLINATION":"53.2145","MEAN_MOTION_DOT":"0.00036879","ARG_OF_PERICENTER":"100.4944","ECCENTRICITY":"0.00008020","MEAN_MOTION":"15.73286481","TLE_LINE2":"2 52650  53.2145  25.0273 0000802 100.4944 259.6166 15.73286481  1754","LAUNCH_DATE":"2022-05-14"},{"TLE_LINE1":"1 52656U 22053A   22145.91667824 -.00876232  00000-0 -57575-2 0  9994","CENTER_NAME":"EARTH","GP_ID":"204541228","TIME_SYSTEM":"UTC","NORAD_CAT_ID":"52656","FILE":"3464394","EPOCH":"2022-05-25T22:00:00.999936","MEAN_ELEMENT_THEORY":"SGP4","REF_FRAME":"TEME","MEAN_MOTION_DDOT":"0.0000000000000","CLASSIFICATION_TYPE":"U","EPHEMERIS_TYPE":"0","APOAPSIS":"338.836","RCS_SIZE":null,"REV_AT_EPOCH":"130","OBJECT_NAME":"STARLINK-4004","DECAY_DATE":null,"ELEMENT_SET_NO":"999","OBJECT_TYPE":"PAYLOAD","INCLINATION":"53.2171","PERIAPSIS":"336.936","ARG_OF_PERICENTER":"39.9495","ECCENTRICITY":"0.00014150","MEAN_MOTION_DOT":"-0.00876232","MEAN_MOTION":"15.77374103","TLE_LINE2":"2 52656  53.2171 260.8498 0001415  39.9495  50.5410 15.77374103  1309","LAUNCH_DATE":"2022-05-18","SITE":"AFETR","OBJECT_ID":"2022-053A","SEMIMAJOR_AXIS":"6716.021","PERIOD":"91.291","MEAN_ANOMALY":"50.5410","RA_OF_ASC_NODE":"260.8498","COUNTRY_CODE":"US","BSTAR":"-0.00575750000000"},{"EPOCH":"2022-05-25T22:00:00.999936","FILE":"3464394","APOAPSIS":"339.018","RCS_SIZE":null,"EPHEMERIS_TYPE":"0","REV_AT_EPOCH":"130","REF_FRAME":"TEME","MEAN_ELEMENT_THEORY":"SGP4","CLASSIFICATION_TYPE":"U","MEAN_MOTION_DDOT":"0.0000000000000","GP_ID":"204540678","CENTER_NAME":"EARTH","TLE_LINE1":"1 52657U 22053B   22145.91667824 -.00876203  00000-0 -57715-2 0  9999","NORAD_CAT_ID":"52657","TIME_SYSTEM":"UTC","OBJECT_ID":"2022-053B","SITE":"AFETR","SEMIMAJOR_AXIS":"6716.177","COUNTRY_CODE":"US","BSTAR":"-0.00577150000000","PERIOD":"91.294","RA_OF_ASC_NODE":"260.8516","MEAN_ANOMALY":"51.0682","OBJECT_TYPE":"PAYLOAD","PERIAPSIS":"337.067","INCLINATION":"53.2171","DECAY_DATE":null,"OBJECT_NAME":"STARLINK-4084","ELEMENT_SET_NO":"999","LAUNCH_DATE":"2022-05-18","TLE_LINE2":"2 52657  53.2171 260.8516 0001452  38.0697  51.0682 15.77318927  1305","MEAN_MOTION_DOT":"-0.00876203","ARG_OF_PERICENTER":"38.0697","ECCENTRICITY":"0.00014520","MEAN_MOTION":"15.77318927"},{"GP_ID":"204541336","TLE_LINE1":"1 52658U 22053C   22145.91667824 -.00876270  00000-0 -57619-2 0  9997","CENTER_NAME":"EARTH","NORAD_CAT_ID":"52658","TIME_SYSTEM":"UTC","EPOCH":"2022-05-25T22:00:00.999936","FILE":"3464394","EPHEMERIS_TYPE":"0","RCS_SIZE":null,"APOAPSIS":"338.865","REV_AT_EPOCH":"130","MEAN_ELEMENT_THEORY":"SGP4","REF_FRAME":"TEME","MEAN_MOTION_DDOT":"0.0000000000000","CLASSIFICATION_TYPE":"U","OBJECT_TYPE":"PAYLOAD","INCLINATION":"53.2171","PERIAPSIS":"336.996","OBJECT_NAME":"STARLINK-4082","DECAY_DATE":null,"ELEMENT_SET_NO":"999","LAUNCH_DATE":"2022-05-18","TLE_LINE2":"2 52658  53.2171 260.8504 0001391  40.5896  49.4296 15.77358412  1309","ARG_OF_PERICENTER":"40.5896","ECCENTRICITY":"0.00013910","MEAN_MOTION_DOT":"-0.00876270","MEAN_MOTION":"15.77358412","SITE":"AFETR","OBJECT_ID":"2022-053C","SEMIMAJOR_AXIS":"6716.065","COUNTRY_CODE":"US","BSTAR":"-0.00576190000000","MEAN_ANOMALY":"49.4296","PERIOD":"91.292","RA_OF_ASC_NODE":"260.8504"},{"CENTER_NAME":"EARTH","TLE_LINE1":"1 52659U 22053D   22145.91667824 -.00876211  00000-0 -57680-2 0  9991","GP_ID":"204541122","TIME_SYSTEM":"UTC","NORAD_CAT_ID":"52659","FILE":"3464394","EPOCH":"2022-05-25T22:00:00.999936","CLASSIFICATION_TYPE":"U","MEAN_MOTION_DDOT":"0.0000000000000","REF_FRAME":"TEME","MEAN_ELEMENT_THEORY":"SGP4","REV_AT_EPOCH":"130","RCS_SIZE":null,"APOAPSIS":"338.984","EPHEMERIS_TYPE":"0","ELEMENT_SET_NO":"999","DECAY_DATE":null,"OBJECT_NAME":"STARLINK-3960","PERIAPSIS":"337.023","INCLINATION":"53.2171","OBJECT_TYPE":"PAYLOAD","MEAN_MOTION":"15.77332568","MEAN_MOTION_DOT":"-0.00876211","ARG_OF_PERICENTER":"37.3356","ECCENTRICITY":"0.00014600","TLE_LINE2":"2 52659  53.2171 260.8507 0001460  37.3356  52.2911 15.77332568  1305","LAUNCH_DATE":"2022-05-18","SEMIMAJOR_AXIS":"6716.139","SITE":"AFETR","OBJECT_ID":"2022-053D","RA_OF_ASC_NODE":"260.8507","PERIOD":"91.293","MEAN_ANOMALY":"52.2911","BSTAR":"-0.00576800000000","COUNTRY_CODE":"US"},{"ELEMENT_SET_NO":"999","OBJECT_NAME":"STARLINK-4081","DECAY_DATE":null,"INCLINATION":"53.2171","PERIAPSIS":"336.751","OBJECT_TYPE":"PAYLOAD","MEAN_MOTION":"15.77396398","ARG_OF_PERICENTER":"32.4932","ECCENTRICITY":"0.00015950","MEAN_MOTION_DOT":"-0.00876150","LAUNCH_DATE":"2022-05-18","TLE_LINE2":"2 52660  53.2171 260.8486 0001595  32.4932  58.4152 15.77396398  1304","SEMIMAJOR_AXIS":"6715.958","OBJECT_ID":"2022-053E","SITE":"AFETR","PERIOD":"91.290","MEAN_ANOMALY":"58.4152","RA_OF_ASC_NODE":"260.8486","BSTAR":"-0.00575070000000","COUNTRY_CODE":"US","TLE_LINE1":"1 52660U 22053E   22145.91667824 -.00876150  00000-0 -57507-2 0  9993","CENTER_NAME":"EARTH","GP_ID":"204540893","TIME_SYSTEM":"UTC","NORAD_CAT_ID":"52660","FILE":"3464394","EPOCH":"2022-05-25T22:00:00.999936","MEAN_MOTION_DDOT":"0.0000000000000","CLASSIFICATION_TYPE":"U","MEAN_ELEMENT_THEORY":"SGP4","REF_FRAME":"TEME","REV_AT_EPOCH":"130","EPHEMERIS_TYPE":"0","RCS_SIZE":null,"APOAPSIS":"338.894"},{"MEAN_MOTION_DOT":"-0.00876187","ARG_OF_PERICENTER":"37.2155","ECCENTRICITY":"0.00014730","MEAN_MOTION":"15.77417556","LAUNCH_DATE":"2022-05-18","TLE_LINE2":"2 52661  53.2171 260.8472 0001473  37.2155  54.1197 15.77417556  1307","DECAY_DATE":null,"OBJECT_NAME":"STARLINK-4042","ELEMENT_SET_NO":"999","OBJECT_TYPE":"PAYLOAD","PERIAPSIS":"336.773","INCLINATION":"53.2171","RA_OF_ASC_NODE":"260.8472","PERIOD":"91.288","MEAN_ANOMALY":"54.1197","COUNTRY_CODE":"US","BSTAR":"-0.00574580000000","SITE":"AFETR","OBJECT_ID":"2022-053F","SEMIMAJOR_AXIS":"6715.898","TIME_SYSTEM":"UTC","NORAD_CAT_ID":"52661","CENTER_NAME":"EARTH","TLE_LINE1":"1 52661U 22053F   22145.91667824 -.00876187  00000-0 -57458-2 0  9999","GP_ID":"204541016","REF_FRAME":"TEME","MEAN_ELEMENT_THEORY":"SGP4","CLASSIFICATION_TYPE":"U","MEAN_MOTION_DDOT":"0.0000000000000","RCS_SIZE":null,"APOAPSIS":"338.752","EPHEMERIS_TYPE":"0","REV_AT_EPOCH":"130","FILE":"3464394","EPOCH":"2022-05-25T22:00:00.999936"},{"ELEMENT_SET_NO":"999","OBJECT_NAME":"STARLINK-4044","DECAY_DATE":null,"INCLINATION":"53.2171","PERIAPSIS":"336.669","OBJECT_TYPE":"PAYLOAD","MEAN_MOTION":"15.77456526","ARG_OF_PERICENTER":"38.0722","ECCENTRICITY":"0.00014630","MEAN_MOTION_DOT":"-0.00876262","LAUNCH_DATE":"2022-05-18","TLE_LINE2":"2 52662  53.2171 260.8459 0001463  38.0722  54.1411 15.77456526  1300","SEMIMAJOR_AXIS":"6715.787","OBJECT_ID":"2022-053G","SITE":"AFETR","PERIOD":"91.286","MEAN_ANOMALY":"54.1411","RA_OF_ASC_NODE":"260.8459","BSTAR":"-0.00573630000000","COUNTRY_CODE":"US","TLE_LINE1":"1 52662U 22053G   22145.91667824 -.00876262  00000-0 -57363-2 0  9999","CENTER_NAME":"EARTH","GP_ID":"204541427","TIME_SYSTEM":"UTC","NORAD_CAT_ID":"52662","FILE":"3464394","EPOCH":"2022-05-25T22:00:00.999936","MEAN_MOTION_DDOT":"0.0000000000000","CLASSIFICATION_TYPE":"U","MEAN_ELEMENT_THEORY":"SGP4","REF_FRAME":"TEME","REV_AT_EPOCH":"130","EPHEMERIS_TYPE":"0","APOAPSIS":"338.634","RCS_SIZE":null},{"TLE_LINE2":"2 52663  53.2171 260.8446 0001427  38.5415  54.0967 15.77477596  1306","LAUNCH_DATE":"2022-05-18","MEAN_MOTION":"15.77477596","ARG_OF_PERICENTER":"38.5415","ECCENTRICITY":"0.00014270","MEAN_MOTION_DOT":"-0.00876283","INCLINATION":"53.2171","PERIAPSIS":"336.634","OBJECT_TYPE":"PAYLOAD","ELEMENT_SET_NO":"999","OBJECT_NAME":"STARLINK-4037","DECAY_DATE":null,"BSTAR":"-0.00573110000000","COUNTRY_CODE":"US","RA_OF_ASC_NODE":"260.8446","PERIOD":"91.285","MEAN_ANOMALY":"54.0967","SEMIMAJOR_AXIS":"6715.727","SITE":"AFETR","OBJECT_ID":"2022-053H","NORAD_CAT_ID":"52663","TIME_SYSTEM":"UTC","GP_ID":"204540786","TLE_LINE1":"1 52663U 22053H   22145.91667824 -.00876283  00000-0 -57311-2 0  9996","CENTER_NAME":"EARTH","REV_AT_EPOCH":"130","EPHEMERIS_TYPE":"0","RCS_SIZE":null,"APOAPSIS":"338.550","MEAN_MOTION_DDOT":"0.0000000000000","CLASSIFICATION_TYPE":"U","MEAN_ELEMENT_THEORY":"SGP4","REF_FRAME":"TEME","EPOCH":"2022-05-25T22:00:00.999936","FILE":"3464394"}];
